STARLINK-1880           
1 47165U 20088AV  25024.58335648  .00690311  21159-3  17443-2 0  9998
2 47165  53.0460 310.5702 0001986 161.6798 180.9834 15.95006411230812
STARLINK-1887           
1 47170U 20088BA  25021.55693774  .01014986  54786-3  15766-2 0  9992
2 47170  53.0391 323.1776 0006562 156.4320 203.7012 16.03591474230416
STARLINK-1888           
1 47171U 20088BB  25024.42517784  .00015377  00000+0  10491-2 0  9998
2 47171  53.0520 328.8711 0001814  99.6311 260.4883 15.06395416230589
STARLINK-1890           
1 47173U 20088BD  25024.00001157  .00025469  00000+0  55433-3 0  9995
2 47173  53.0475 326.9422 0009248  95.6302  28.6878 15.44122132230575
STARLINK-1895           
1 47175U 20088BF  25024.58335648  .00571702  00000+0  20479-2 0  9992
2 47175  53.0463 285.7600 0002613 187.4723 147.6469 15.86818770230901
STARLINK-1907           
1 47177U 20088BH  25024.58335648  .00357044  00000+0  26851-2 0  9995
2 47177  53.0472 306.2096 0014910 105.9225  96.9957 15.70827524230915
STARLINK-1912           
1 47178U 20088BJ  25024.39106858  .00017079  00000+0  11629-2 0  9992
2 47178  53.0569 339.0289 0001090 121.9268 238.1827 15.06392836230144
STARLINK-1913           
1 47179U 20088BK  25023.91467493  .00042336  00000+0  28422-2 0  9998
2 47179  53.0565 351.1670 0000396  63.0944 297.0086 15.06424010230180
STARLINK-2017           
1 47351U 21005C   25023.49076470  .00011022  00000+0  75791-3 0  9994
2 47351  53.0536  63.0610 0001994  71.3273 288.7933 15.06388541221776
STARLINK-2034           
1 47352U 21005D   25023.51013727  .00028443  00000+0  19231-2 0  9995
2 47352  53.0536 102.9866 0001285 105.1808 254.9323 15.06353410221872
STARLINK-2045           
1 47353U 21005E   25023.46544102  .00004824  00000+0  34252-3 0  9994
2 47353  53.0574  48.1764 0001696 157.3631 202.7433 15.06400326221986
STARLINK-2046           
1 47354U 21005F   25024.12713399  .00004020  00000+0  28857-3 0  9997
2 47354  53.0552  65.7516 0004151  94.3710 265.7753 15.06407283222456
STARLINK-2047           
1 47355U 21005G   25024.36250191  .00012647  00000+0  86604-3 0  9998
2 47355  53.0550  49.1565 0001069  95.2295 264.8816 15.06416609222708
STARLINK-2049           
1 47356U 21005H   25024.40859510  .00021467  00000+0  14554-2 0  9998
2 47356  53.0558  68.9504 0001392  89.3495 270.7654 15.06406326222727
STARLINK-2050           
1 47357U 21005J   25024.45747403  .00018376  00000+0  12488-2 0  9990
2 47357  53.0534  99.1543 0001911  63.7390 296.3796 15.06415905222306
STARLINK-2055           
1 47358U 21005K   25024.08696175  .00016553  00000+0  11273-2 0  9995
2 47358  53.0558  70.3831 0001402  94.6992 265.4158 15.06408438222672
STARLINK-2069           
1 47359U 21005L   25024.37148459  .00069877  00000+0  27014-2 0  9992
2 47359  53.0322  82.9156 0002956   2.9925 357.1089 15.25607229222227
STARLINK-2071           
1 47361U 21005N   25024.42700669  .00016595  00000+0  11296-2 0  9992
2 47361  53.0550  68.8672 0001316 100.8840 259.2297 15.06424133222720
STARLINK-2076           
1 47362U 21005P   25023.60966243  .00027425  00000+0  18543-2 0  9990
2 47362  53.0531 102.5381 0001459  98.0781 262.0373 15.06370959221231
STARLINK-2081           
1 47366U 21005T   25024.36895560  .00021019  00000+0  14257-2 0  9992
2 47366  53.0546  99.1297 0001495 106.7969 253.3184 15.06402188221348
STARLINK-2082           
1 47367U 21005U   25024.46110135  .00029028  00000+0  19578-2 0  9991
2 47367  53.0532  98.7182 0001565  81.4735 278.6431 15.06434261221364
STARLINK-2084           
1 47368U 21005V   25023.59122738  .00026191  00000+0  17718-2 0  9999
2 47368  53.0529 102.6224 0001367  91.3957 268.7189 15.06375789221234
STARLINK-2086           
1 47370U 21005X   25023.48802316  .00009986  00000+0  68833-3 0  9995
2 47370  53.0536  63.0842 0001718  77.7382 282.3800 15.06399693221783
STARLINK-2088           
1 47371U 21005Y   25023.53962575  .00030625  00000+0  20677-2 0  9993
2 47371  53.0527 102.8549 0001291  93.0657 267.0479 15.06368424221221
STARLINK-2092           
1 47373U 21005AA  25024.46479428  .00031126  00000+0  20974-2 0  9995
2 47373  53.0532  98.6997 0001418  79.2026 280.9122 15.06433483221367
STARLINK-2093           
1 47374U 21005AB  25024.48321614  .00028847  00000+0  19455-2 0  9999
2 47374  53.0550  98.5880 0001546  96.2593 263.8572 15.06440202221364
STARLINK-2094           
1 47375U 21005AC  25024.42424113  .00028735  00000+0  19385-2 0  9990
2 47375  53.0552  98.8796 0001323  82.2618 277.8521 15.06431466222319
STARLINK-2096           
1 47376U 21005AD  25024.42793677  .00047519  00000+0  31835-2 0  9990
2 47376  53.0538  98.8662 0001400  88.4307 271.6842 15.06448186221353
STARLINK-2097           
1 47377U 21005AE  25024.47953532  .00021185  00000+0  14356-2 0  9994
2 47377  53.0555  98.6331 0001558  85.3784 274.7382 15.06432238221368
STARLINK-2098           
1 47378U 21005AF  25024.40581756  .00012408  00000+0  85003-3 0  9999
2 47378  53.0566  58.9586 0002175  59.5510 300.5694 15.06418274221917
STARLINK-2099           
1 47379U 21005AG  25024.41224015  .00009072  00000+0  62700-3 0  9995
2 47379  53.0549  58.9253 0001481  84.8596 275.2562 15.06409309221915
STARLINK-2100           
1 47380U 21005AH  25024.44176066  .00012477  00000+0  85438-3 0  9998
2 47380  53.0543  68.8010 0001673  78.8999 281.2178 15.06429324222724
STARLINK-2101           
1 47381U 21005AJ  25024.12616218  .00019733  00000+0  13396-2 0  9997
2 47381  53.0553  75.3091 0001412  99.1043 261.0106 15.06409838222629
STARLINK-2102           
1 47382U 21005AK  25024.43439746  .00019810  00000+0  13448-2 0  9995
2 47382  53.0528  68.8352 0001355  92.8303 267.2841 15.06406685222715
STARLINK-2103           
1 47383U 21005AL  25024.41321788  .00008711  00000+0  60273-3 0  9997
2 47383  53.0553  59.2133 0001468  86.0966 274.0191 15.06413642221916
STARLINK-2104           
1 47384U 21005AM  25024.15429761  .00016314  00000+0  11117-2 0  9999
2 47384  53.0530  70.3374 0000973  57.4143 302.6940 15.06394687222347
STARLINK-2105           
1 47385U 21005AN  25024.15056696  .00008144  00000+0  56486-3 0  9994
2 47385  53.0557  70.1083 0000954  50.1727 309.9346 15.06407188222340
STARLINK-2106           
1 47386U 21005AP  25024.11371995  .00030429  00000+0  20512-2 0  9994
2 47386  53.0533  70.2760 0002066  65.0551 295.0653 15.06430480222352
STARLINK-2109           
1 47388U 21005AR  25024.18097929  .00027031  00000+0  18262-2 0  9999
2 47388  53.0545  99.9740 0001552  86.2991 273.8176 15.06408309222275
STARLINK-2110           
1 47389U 21005AS  25024.35879634  .00017807  00000+0  12104-2 0  9999
2 47389  53.0567  79.1583 0001836 109.1571 250.9616 15.06427601221628
STARLINK-2111           
1 47390U 21005AT  25024.48690587  .00030995  00000+0  20874-2 0  9999
2 47390  53.0552  98.5967 0001466  85.7689 274.3468 15.06456097221360
STARLINK-2112           
1 47391U 21005AU  25024.42975131  .00012652  00000+0  86629-3 0  9996
2 47391  53.0540  68.8617 0001394  87.0205 273.0943 15.06419871222385
STARLINK-2113           
1 47392U 21005AV  25024.43069992  .00023476  00000+0  15880-2 0  9993
2 47392  53.0545  68.8517 0001404  86.8520 273.2629 15.06440048222382
STARLINK-2114           
1 47393U 21005AW  25024.32430168  .00020458  00000+0  13870-2 0  9993
2 47393  53.0542  44.6860 0001537  88.7694 271.3471 15.06435250222106
STARLINK-2117           
1 47395U 21005AY  25024.40952829  .00014821  00000+0  10119-2 0  9997
2 47395  53.0556  58.9449 0001738  82.8454 277.2732 15.06394602221914
STARLINK-2119           
1 47397U 21005BA  25024.45005462  .00004672  00000+0  33234-3 0  9993
2 47397  53.0543  98.7683 0001448  96.8334 263.2819 15.06399127221361
STARLINK-2121           
1 47399U 21005BC  25024.45929015  .00023475  00000+0  15885-2 0  9997
2 47399  53.0537  78.9681 0001433  91.9861 268.1292 15.06426575221636
STARLINK-2122           
1 47400U 21005BD  25024.35421640  .00011435  00000+0  78496-3 0  9991
2 47400  53.0546  59.2032 0001524  81.0819 279.0342 15.06415720221902
STARLINK-2123           
1 47401U 21005BE  25024.43808485  .00021695  00000+0  14704-2 0  9997
2 47401  53.0559  68.8239 0001566  93.3487 266.7681 15.06412718222392
STARLINK-2127           
1 47403U 21005BG  25024.38893101  .00011287  00000+0  16538-3 0  9996
2 47403  53.0543  59.7546 0001043  96.9683 263.1446 15.56108075222511
STARLINK-2128           
1 47404U 21005BH  25024.39383002  .00025817  00000+0  17439-2 0  9996
2 47404  53.0558  69.0169 0001622  82.4764 277.6409 15.06439440222388
STARLINK-2130           
1 47405U 21005BJ  25023.64649761  .00003206  00000+0  23410-3 0  9996
2 47405  53.0537 102.3740 0001478  81.5419 278.5737 15.06386834221233
STARLINK-2133           
1 47406U 21005BK  25024.13950590  .00018612  00000+0  12646-2 0  9992
2 47406  53.0538  70.1554 0001167 116.8262 243.2846 15.06414148222357
STARLINK-2134           
1 47407U 21005BL  25023.74880258  .00012802  00000+0  87660-3 0  9996
2 47407  53.0544  71.9142 0001553  66.7777 293.3376 15.06406562221679
STARLINK-2135           
1 47408U 21005BM  25024.38277640  .00015663  00000+0  10675-2 0  9992
2 47408  53.0543  69.0645 0001450  97.5617 262.5536 15.06420544222387
STARLINK-1782           
1 47548U 21009A   25024.58335648  .00832455  31122-3  21119-2 0  9990
2 47548  53.0463  20.3032 0010275  66.3279 316.9970 15.94845873220260
STARLINK-1806           
1 47549U 21009B   25024.05290140  .00004165  00000+0  29835-3 0  9990
2 47549  53.0550  50.5485 0001640  90.2835 269.8342 15.06397094219802
STARLINK-1909           
1 47550U 21009C   25024.58335648  .00265647  00000+0  39026-2 0  9999
2 47550  53.0558  21.9055 0001267  99.3270 222.4914 15.54054091220245
STARLINK-1938           
1 47551U 21009D   25024.48157823  .01788573  26883-2  16252-2 0  9991
2 47551  53.0326  27.8123 0009699  59.3683  76.6362 16.12464835220153
